ONEWEB-0116             
1 48046U 21025E   25300.63259887  .00000287  00000+0  75012-3 0  9994
2 48046  87.9037   6.4247 0001743 104.0542 256.0780 13.13471453223122
ONEWEB-0150             
1 48047U 21025F   25300.60889477 -.00000133  00000+0 -40022-3 0  9991
2 48047  87.9039   6.4241 0001725  94.2151 265.9175 13.13472388223018
ONEWEB-0107             
1 48048U 21025G   25300.61059801 -.00000156  00000+0 -46307-3 0  9990
2 48048  87.9037   6.4209 0002017  94.8194 265.3166 13.13470122222993
ONEWEB-0101             
1 48049U 21025H   25300.64953554  .00000173  00000+0  43841-3 0  9999
2 48049  87.9031   6.4500 0001959 100.1504 259.9846 13.13471311222975
ONEWEB-0113             
1 48050U 21025J   25300.45537986 -.00000161  00000+0 -47214-3 0  9994
2 48050  87.9038   6.4231 0001585 100.5910 259.5398 13.13981748223042
ONEWEB-0112             
1 48051U 21025K   25300.61566772 -.00000023  00000+0 -97569-4 0  9994
2 48051  87.9037   6.4169 0001801  98.0986 262.0347 13.13472208223068
ONEWEB-0156             
1 48052U 21025L   25300.62413985  .00000185  00000+0  47126-3 0  9993
2 48052  87.9036   6.4271 0001879  95.4750 264.6594 13.13471906223041
ONEWEB-0161             
1 48053U 21025M   25300.59874816 -.00000277  00000+0 -79240-3 0  9990
2 48053  87.9032   6.4502 0001921  94.8278 265.3071 13.13470497222974
